[{"OBJECT_NAME":"STARLINK-31446","OBJECT_ID":"2024-056V","EPOCH":"2026-03-09T11:13:51.944448","MEAN_MOTION":15.27588134,"ECCENTRICITY":8.048e-5,"INCLINATION":43.0026,"RA_OF_ASC_NODE":231.6832,"ARG_OF_PERICENTER":272.0223,"MEAN_ANOMALY":88.0536,"EPHEMERIS_TYPE":0,"CLASSIFICATION_TYPE":"U","NORAD_CAT_ID":59315,"ELEMENT_SET_NO":999,"REV_AT_EPOCH":11112,"BSTAR":-7.7996021e-5,"MEAN_MOTION_DOT":-2.408e-5,"MEAN_MOTION_DDOT":0},{"OBJECT_NAME":"FLOCK 4G-21","OBJECT_ID":"2025-009AU","EPOCH":"2026-03-09T04:40:37.351200","MEAN_MOTION":15.28381075,"ECCENTRICITY":4.655e-5,"INCLINATION":97.4032,"RA_OF_ASC_NODE":151.1274,"ARG_OF_PERICENTER":329.5782,"MEAN_ANOMALY":30.5431,"EPHEMERIS_TYPE":0,"CLASSIFICATION_TYPE":"U","NORAD_CAT_ID":62651,"ELEMENT_SET_NO":999,"REV_AT_EPOCH":6367,"BSTAR":0.00049618643,"MEAN_MOTION_DOT":0.00013648,"MEAN_MOTION_DDOT":0}]
