STARLINK-31446          
1 59315U 24056V   26068.46796232 -.00002408  00000+0 -77996-4 0  9998
2 59315  43.0026 231.6832 0000804 272.0223  88.0536 15.27588134111125
FLOCK 4G-21             
1 62651U 25009AU  26068.19487675  .00013648  00000+0  49619-3 0  9998
2 62651  97.4032 151.1274 0000465 329.5782  30.5431 15.28381075 63677
